QIANFAN-57              
1 62787U 25016C   26024.11581107  .00000190  00000+0  27602-3 0  9991
2 62787  88.9763  98.8289 0002309  89.6389 270.5026 13.50990991 52920
QIANFAN-58              
1 62788U 25016D   26024.16100515  .00000186  00000+0  26923-3 0  9997
2 62788  88.9732  98.6428 0013252 212.7110 147.3222 13.50992886 52979
QIANFAN-59              
1 62789U 25016E   26024.11165977  .00000208  00000+0  30422-3 0  9990
2 62789  88.9756  98.7317 0013479 217.0705 142.9516 13.50989086 52967
QIANFAN-60              
1 62790U 25016F   26024.14452596  .00000189  00000+0  27457-3 0  9993
2 62790  88.9737  98.6916 0015142 214.0196 145.9986 13.50987100 52950
QIANFAN-61              
1 62791U 25016G   26024.17748858  .00000174  00000+0  25093-3 0  9994
2 62791  88.9804  98.8800 0014088 212.8093 147.2185 13.50988438 52973
QIANFAN-62              
1 62792U 25016H   26024.10754490  .00000183  00000+0  26445-3 0  9999
2 62792  88.9751  98.7327 0015452 214.0239 145.9923 13.50991091 52952
QIANFAN-63              
1 62793U 25016J   26024.13221640  .00000180  00000+0  25950-3 0  9996
2 62793  88.9757  98.6845 0015342 219.5591 140.4442 13.50989290 52990
QIANFAN-64              
1 62794U 25016K   26024.17336200  .00000180  00000+0  26046-3 0  9997
2 62794  88.9744  98.6486 0013516 211.0604 148.9749 13.50987825 52996
